[{"OBJECT_NAME":"GAOFEN-12 03","OBJECT_ID":"2022-069A","EPOCH":"2026-03-09T22:26:41.020800","MEAN_MOTION":14.79856399,"ECCENTRICITY":0.00023242,"INCLINATION":97.8403,"RA_OF_ASC_NODE":319.2501,"ARG_OF_PERICENTER":91.8845,"MEAN_ANOMALY":268.2634,"EPHEMERIS_TYPE":0,"CLASSIFICATION_TYPE":"U","NORAD_CAT_ID":52912,"ELEMENT_SET_NO":999,"REV_AT_EPOCH":19993,"BSTAR":0.00029245071,"MEAN_MOTION_DOT":2.154e-5,"MEAN_MOTION_DDOT":0},{"OBJECT_NAME":"CZ-4C DEB","OBJECT_ID":"2018-031J","EPOCH":"2026-03-08T23:16:23.138400","MEAN_MOTION":14.80472658,"ECCENTRICITY":0.00037528,"INCLINATION":97.7313,"RA_OF_ASC_NODE":126.5608,"ARG_OF_PERICENTER":246.8859,"MEAN_ANOMALY":113.1959,"EPHEMERIS_TYPE":0,"CLASSIFICATION_TYPE":"U","NORAD_CAT_ID":43270,"ELEMENT_SET_NO":999,"REV_AT_EPOCH":43811,"BSTAR":0.00014078752,"MEAN_MOTION_DOT":1.027e-5,"MEAN_MOTION_DDOT":0}]
